ONEWEB-0560             
1 55145U 23004F   24216.94597787  .00000092  00000+0  20036-3 0  9994
2 55145  87.9134 111.3082 0001506  71.7004 288.4292 13.18684972 79797
ONEWEB-0565             
1 55146U 23004G   24216.93965371  .00000044  00000+0  79060-4 0  9991
2 55146  87.9130 111.3852 0001519  97.6801 262.4504 13.18687108 79786
ONEWEB-0567             
1 55147U 23004H   24216.78157730  .00000005  00000+0 -20398-4 0  9995
2 55147  87.9130 111.3706 0001394  84.8109 275.3182 13.18687413 79767
ONEWEB-0569             
1 55148U 23004J   24216.91298413 -.00000096  00000+0 -29713-3 0  9995
2 55148  87.8902  95.9950 0000702  87.8355 272.2854 13.13467803 80612
ONEWEB-0570             
1 55149U 23004K   24216.76893625 -.00000011  00000+0 -59728-4 0  9992
2 55149  87.9131 111.3709 0002283  96.9207 263.2185 13.18686265 79756
ONEWEB-0571             
1 55150U 23004L   24216.76260914  .00000061  00000+0  12155-3 0  9998
2 55150  87.9132 111.3784 0001366 111.8204 248.3074 13.18684510 79760
ONEWEB-0572             
1 55151U 23004M   24216.85312832  .00000116  00000+0  26677-3 0  9991
2 55151  87.9191 141.7458 0002004  84.2109 275.9251 13.17647619 77622
ONEWEB-0573             
1 55152U 23004N   24216.75629066  .00000020  00000+0  16966-4 0  9996
2 55152  87.9127 111.3983 0001674 110.4926 249.6385 13.18685611 79756
